*******************************************************************************
Ephemeris / WWW_USER Thu May 23 17:15:40 2024 Pasadena, USA      / Horizons    
*******************************************************************************
Target body name: (2018 RP1)                      {source: JPL#4}
Center body name: Earth (399)                     {source: DE441}
Center-site name: Gemini South Obs., Cerro Pachon
*******************************************************************************
Start time      : A.D. 2018-Sep-11 22:41:00.0000 UT      
Stop  time      : A.D. 2018-Sep-12 10:36:00.0000 UT      
Step-size       : 1 minutes
*******************************************************************************
Target pole/equ : undefined
Target radii    : undefined                                                    
Center geodetic : 289.2634, -30.2406227, 2.71233  {E-lon(deg),Lat(deg),Alt(km)}
Center cylindric: 289.2634,5517.21435,-3194.81213 {E-lon(deg),Dxy(km),Dz(km)}
Center pole/equ : ITRF93                          {East-longitude positive}
Center radii    : 6378.137, 6378.137, 6356.752 km {Equator_a, b, pole_c}       
Target primary  : Sun
Vis. interferer : MOON (R_eq= 1737.400) km        {source: DE441}
Rel. light bend : Sun                             {source: DE441}
Rel. lght bnd GM: 1.3271E+11 km^3/s^2                                          
Small-body perts: Yes                             {source: SB441-N16}
Atmos refraction: NO (AIRLESS)
RA format       : HMS
Time format     : CAL 
Calendar mode   : Mixed Julian/Gregorian
RTS-only print  : NO       
EOP file        : eop.240523.p240816                                           
EOP coverage    : DATA-BASED 1962-JAN-20 TO 2024-MAY-23. PREDICTS-> 2024-AUG-15
Units conversion: 1 au= 149597870.700 km, c= 299792.458 km/s, 1 day= 86400.0 s 
Table cut-offs 1: Elevation (-90.0deg=NO ),Airmass (>38.000=NO), Daylight (YES)
Table cut-offs 2: Solar elongation (  0.0,180.0=NO ),Local Hour Angle( 0.0=NO )
Table cut-offs 3: RA/DEC angular rate (     0.0=NO )                           
*******************************************************************************
Initial IAU76/J2000 heliocentric ecliptic osculating elements (au, days, deg.):
  EPOCH=  2458376.5 ! 2018-Sep-15.00 (TDB)         Residual RMS= .12525        
   EC= .3382936082205208   QR= .9576766169446216   TP= 2458412.3293739939      
   OM= 161.903422202901    W=  234.5704247756858   IN= 9.466091569921099       
  Equivalent ICRF heliocentric cartesian coordinates (au, au/d):
   X= 1.017940821946709E+00  Y=-7.278189102440286E-02  Z=-7.249995171787897E-02
  VX=-1.754817228708964E-03 VY= 1.862872143473751E-02 VZ= 4.887370356508847E-03
Asteroid physical parameters (km, seconds, rotational period in hours):        
   GM= n.a.                RAD= n.a.               ROTPER= n.a.                
   H= 24.3                 G= .150                 B-V= n.a.                   
                           ALBEDO= n.a.            STYP= n.a.                  
*******************************************************************************
 Date__(UT)__HR:MN     R.A._________(ICRF)_________DEC
******************************************************
$$SOE
 2018-Sep-12 04:50     03 44 00.865395 -10 07 39.37959
 2018-Sep-12 04:51     03 44 01.652403 -10 07 43.68116
 2018-Sep-12 04:52     03 44 02.439259 -10 07 47.98238
 2018-Sep-12 04:53     03 44 03.225965 -10 07 52.28324
 2018-Sep-12 04:54     03 44 04.012520 -10 07 56.58375
 2018-Sep-12 04:55     03 44 04.798925 -10 08 00.88389
 2018-Sep-12 04:56     03 44 05.585181 -10 08 05.18368
 2018-Sep-12 04:57     03 44 06.371286 -10 08 09.48310
 2018-Sep-12 04:58     03 44 07.157243 -10 08 13.78216
 2018-Sep-12 04:59     03 44 07.943050 -10 08 18.08085
 2018-Sep-12 05:00     03 44 08.728709 -10 08 22.37918
 2018-Sep-12 05:01     03 44 09.514220 -10 08 26.67713
 2018-Sep-12 05:02     03 44 10.299583 -10 08 30.97472
 2018-Sep-12 05:03     03 44 11.084798 -10 08 35.27193
 2018-Sep-12 05:04     03 44 11.869866 -10 08 39.56877
 2018-Sep-12 05:05     03 44 12.654788 -10 08 43.86523
 2018-Sep-12 05:06     03 44 13.439562 -10 08 48.16132
 2018-Sep-12 05:07     03 44 14.224191 -10 08 52.45703
 2018-Sep-12 05:08     03 44 15.008673 -10 08 56.75235
 2018-Sep-12 05:09     03 44 15.793010 -10 09 01.04730
 2018-Sep-12 05:10     03 44 16.577202 -10 09 05.34185
 2018-Sep-12 05:11     03 44 17.361249 -10 09 09.63603
 2018-Sep-12 05:12     03 44 18.145152 -10 09 13.92981
 2018-Sep-12 05:13     03 44 18.928911 -10 09 18.22321
 2018-Sep-12 05:14     03 44 19.712526 -10 09 22.51622
 2018-Sep-12 05:15     03 44 20.495997 -10 09 26.80883
 2018-Sep-12 05:16     03 44 21.279326 -10 09 31.10106
 2018-Sep-12 05:17     03 44 22.062512 -10 09 35.39288
 2018-Sep-12 05:18     03 44 22.845555 -10 09 39.68431
 2018-Sep-12 05:19     03 44 23.628457 -10 09 43.97534
 2018-Sep-12 05:20     03 44 24.411218 -10 09 48.26597
 2018-Sep-12 05:21     03 44 25.193837 -10 09 52.55620
 2018-Sep-12 05:22     03 44 25.976315 -10 09 56.84602
 2018-Sep-12 05:23     03 44 26.758654 -10 10 01.13544
 2018-Sep-12 05:24     03 44 27.540852 -10 10 05.42445
 2018-Sep-12 05:25     03 44 28.322910 -10 10 09.71306
 2018-Sep-12 05:26     03 44 29.104830 -10 10 14.00125
 2018-Sep-12 05:27     03 44 29.886611 -10 10 18.28904
 2018-Sep-12 05:28     03 44 30.668253 -10 10 22.57641
 2018-Sep-12 05:29     03 44 31.449757 -10 10 26.86336
 2018-Sep-12 05:30     03 44 32.231124 -10 10 31.14990
 2018-Sep-12 05:31     03 44 33.012354 -10 10 35.43603
 2018-Sep-12 05:32     03 44 33.793447 -10 10 39.72173
 2018-Sep-12 05:33     03 44 34.574403 -10 10 44.00701
 2018-Sep-12 05:34     03 44 35.355224 -10 10 48.29187
 2018-Sep-12 05:35     03 44 36.135909 -10 10 52.57631
 2018-Sep-12 05:36     03 44 36.916458 -10 10 56.86032
 2018-Sep-12 05:37     03 44 37.696874 -10 11 01.14390
 2018-Sep-12 05:38     03 44 38.477154 -10 11 05.42706
 2018-Sep-12 05:39     03 44 39.257301 -10 11 09.70978
 2018-Sep-12 05:40     03 44 40.037315 -10 11 13.99207
 2018-Sep-12 05:41     03 44 40.817196 -10 11 18.27394
 2018-Sep-12 05:42     03 44 41.596944 -10 11 22.55536
 2018-Sep-12 05:43     03 44 42.376560 -10 11 26.83635
 2018-Sep-12 05:44     03 44 43.156044 -10 11 31.11690
 2018-Sep-12 05:45     03 44 43.935397 -10 11 35.39702
 2018-Sep-12 05:46     03 44 44.714619 -10 11 39.67669
 2018-Sep-12 05:47     03 44 45.493711 -10 11 43.95592
 2018-Sep-12 05:48     03 44 46.272672 -10 11 48.23470
 2018-Sep-12 05:49     03 44 47.051505 -10 11 52.51305
 2018-Sep-12 05:50     03 44 47.830208 -10 11 56.79094
 2018-Sep-12 05:51     03 44 48.608782 -10 12 01.06839
 2018-Sep-12 05:52     03 44 49.387229 -10 12 05.34538
 2018-Sep-12 05:53     03 44 50.165548 -10 12 09.62193
 2018-Sep-12 05:54     03 44 50.943739 -10 12 13.89802
 2018-Sep-12 05:55     03 44 51.721804 -10 12 18.17366
 2018-Sep-12 05:56     03 44 52.499742 -10 12 22.44885
 2018-Sep-12 05:57     03 44 53.277555 -10 12 26.72357
 2018-Sep-12 05:58     03 44 54.055242 -10 12 30.99784
 2018-Sep-12 05:59     03 44 54.832805 -10 12 35.27165
 2018-Sep-12 06:00     03 44 55.610243 -10 12 39.54500
 2018-Sep-12 06:01     03 44 56.387556 -10 12 43.81788
 2018-Sep-12 06:02     03 44 57.164747 -10 12 48.09030
 2018-Sep-12 06:03     03 44 57.941814 -10 12 52.36226
 2018-Sep-12 06:04     03 44 58.718759 -10 12 56.63375
 2018-Sep-12 06:05     03 44 59.495582 -10 13 00.90477
 2018-Sep-12 06:06     03 45 00.272283 -10 13 05.17532
 2018-Sep-12 06:07     03 45 01.048863 -10 13 09.44540
 2018-Sep-12 06:08     03 45 01.825323 -10 13 13.71500
 2018-Sep-12 06:09     03 45 02.601662 -10 13 17.98414
 2018-Sep-12 06:10     03 45 03.377882 -10 13 22.25279
 2018-Sep-12 06:11     03 45 04.153983 -10 13 26.52097
 2018-Sep-12 06:12     03 45 04.929965 -10 13 30.78868
 2018-Sep-12 06:13     03 45 05.705829 -10 13 35.05590
 2018-Sep-12 06:14     03 45 06.481575 -10 13 39.32264
 2018-Sep-12 06:15     03 45 07.257204 -10 13 43.58890
 2018-Sep-12 06:16     03 45 08.032717 -10 13 47.85468
 2018-Sep-12 06:17     03 45 08.808113 -10 13 52.11997
 2018-Sep-12 06:18     03 45 09.583394 -10 13 56.38477
 2018-Sep-12 06:19     03 45 10.358559 -10 14 00.64909
 2018-Sep-12 06:20     03 45 11.133610 -10 14 04.91292
 2018-Sep-12 06:21     03 45 11.908547 -10 14 09.17626
 2018-Sep-12 06:22     03 45 12.683371 -10 14 13.43910
 2018-Sep-12 06:23     03 45 13.458081 -10 14 17.70146
 2018-Sep-12 06:24     03 45 14.232679 -10 14 21.96332
 2018-Sep-12 06:25     03 45 15.007165 -10 14 26.22468
 2018-Sep-12 06:26     03 45 15.781539 -10 14 30.48554
 2018-Sep-12 06:27     03 45 16.555802 -10 14 34.74591
 2018-Sep-12 06:28     03 45 17.329955 -10 14 39.00578
 2018-Sep-12 06:29     03 45 18.103998 -10 14 43.26515
 2018-Sep-12 06:30     03 45 18.877932 -10 14 47.52402
 2018-Sep-12 06:31     03 45 19.651756 -10 14 51.78238
 2018-Sep-12 06:32     03 45 20.425473 -10 14 56.04024
 2018-Sep-12 06:33     03 45 21.199082 -10 15 00.29759
 2018-Sep-12 06:34     03 45 21.972583 -10 15 04.55443
 2018-Sep-12 06:35     03 45 22.745978 -10 15 08.81077
 2018-Sep-12 06:36     03 45 23.519266 -10 15 13.06660
 2018-Sep-12 06:37     03 45 24.292449 -10 15 17.32191
 2018-Sep-12 06:38     03 45 25.065527 -10 15 21.57671
 2018-Sep-12 06:39     03 45 25.838501 -10 15 25.83100
 2018-Sep-12 06:40     03 45 26.611370 -10 15 30.08478
 2018-Sep-12 06:41     03 45 27.384136 -10 15 34.33804
 2018-Sep-12 06:42     03 45 28.156800 -10 15 38.59078
 2018-Sep-12 06:43     03 45 28.929360 -10 15 42.84301
 2018-Sep-12 06:44     03 45 29.701820 -10 15 47.09471
 2018-Sep-12 06:45     03 45 30.474177 -10 15 51.34590
 2018-Sep-12 06:46     03 45 31.246435 -10 15 55.59656
 2018-Sep-12 06:47     03 45 32.018592 -10 15 59.84670
 2018-Sep-12 06:48     03 45 32.790650 -10 16 04.09631
 2018-Sep-12 06:49     03 45 33.562608 -10 16 08.34540
 2018-Sep-12 06:50     03 45 34.334469 -10 16 12.59396
 2018-Sep-12 06:51     03 45 35.106231 -10 16 16.84200
 2018-Sep-12 06:52     03 45 35.877897 -10 16 21.08950
